<?xml version="1.0" encoding="UTF-8"?>
<kml xmlns="http://www.opengis.net/kml/2.2"><Document><name>Zone di sosta Vicenza</name><Style id="zona1"><IconStyle><visibility>0</visibility></IconStyle><LineStyle><color>ff5b56b8</color><width>5</width></LineStyle></Style><Style id="zona2"><IconStyle><visibility>0</visibility></IconStyle><LineStyle><color>ff966f3f</color><width>5</width></LineStyle></Style><Style id="zona3"><IconStyle><visibility>0</visibility></IconStyle><LineStyle><color>ff638a4f</color><width>5</width></LineStyle></Style><Style id="zona4"><IconStyle><visibility>0</visibility></IconStyle><LineStyle><color>ff3e8ac0</color><width>5</width></LineStyle></Style><Placemark><name>Via Carlo Cattaneo</name><description>Zona 1 - 20 posti</description><styleUrl>#zona1</styleUrl><LineString><tessellate>1</tessellate><coordinates>11.5378474,45.5465652,0 11.5373463,45.546538,0 11.536727,45.5465043,0 11.5361102,45.5464748,0 11.5359817,45.5464682,0 11.5352883,45.5464353,0 11.5351061,45.5464414,0 11.5349656,45.5464761,0 11.5348926,45.5465066,0 11.534798,45.5465501,0</coordinates></LineString></Placemark><Placemark><name>Via Carlo Cattaneo</name><description>Zona 1 - 20 posti</description><styleUrl>#zona1</styleUrl><LineString><tessellate>1</tessellate><coordinates>11.5347968,45.5463881,0 11.5347071,45.5463864,0 11.5346132,45.5463812,0 11.5336494,45.5463257,0 11.5335573,45.5463222,0 11.5333633,45.5462994,0 11.5331938,45.5462374,0 11.5330213,45.5461603,0 11.5329457,45.5461345,0 11.5327377,45.5460889,0 11.5326173,45.546078,0 11.5321486,45.5460671,0 11.5318137,45.5460576,0 11.5310506,45.546043,0 11.5310097,45.5460387,0</coordinates></LineString></Placemark><Placemark><name>Contrà Mure Rocchetta</name><description>Zona 1 - 44 posti</description><styleUrl>#zona1</styleUrl><LineString><tessellate>1</tessellate><coordinates>11.5361092,45.5468539,0 11.5378082,45.5469227,0</coordinates></LineString></Placemark><Placemark><name>Contrà Mure San Rocco</name><description>Zona 1 - 43 posti</description><styleUrl>#zona1</styleUrl><LineString><tessellate>1</tessellate><coordinates>11.5361092,45.5468539,0 11.5360541,45.5468859,0 11.5360315,45.546931,0 11.5360966,45.5474761,0</coordinates></LineString></Placemark><Placemark><name>Contrà Mure San Rocco</name><description>Zona 1 - 43 posti</description><styleUrl>#zona1</styleUrl><LineString><tessellate>1</tessellate><coordinates>11.5364469,45.5495582,0 11.5364557,45.5496219,0 11.5365782,45.5505088,0</coordinates></LineString></Placemark><Placemark><name>Contrà Mure San Rocco</name><description>Zona 1 - 43 posti</description><styleUrl>#zona1</styleUrl><LineString><tessellate>1</tessellate><coordinates>11.5360966,45.5474761,0 11.5361208,45.5475576,0 11.536139,45.5476189,0 11.5362808,45.5484775,0 11.5362948,45.5485429,0</coordinates></LineString></Placemark><Placemark><name>Contrà Mure San Rocco</name><description>Zona 1 - 43 posti</description><styleUrl>#zona1</styleUrl><LineString><tessellate>1</tessellate><coordinates>11.5364469,45.5495582,0 11.5363095,45.5486412,0 11.5362948,45.5485429,0</coordinates></LineString></Placemark><Placemark><name>Contrà S. Maria Nova</name><description>Zona 1 - 9 posti</description><styleUrl>#zona1</styleUrl><LineString><tessellate>1</tessellate><coordinates>11.5362948,45.5485429,0 11.5364766,45.5485478,0 11.5373369,45.548576,0 11.5376579,45.5485798,0 11.5378307,45.5485818,0 11.5380736,45.5485892,0</coordinates></LineString></Placemark><Placemark><name>Contrà S. Maria Nova</name><description>Zona 1 - 9 posti</description><styleUrl>#zona1</styleUrl><LineString><tessellate>1</tessellate><coordinates>11.5380736,45.5485892,0 11.5382501,45.5485933,0</coordinates></LineString></Placemark><Placemark><name>Contrà S.Rocco</name><description>Zona 1 - 13 posti</description><styleUrl>#zona1</styleUrl><LineString><tessellate>1</tessellate><coordinates>11.5385037,45.5495374,0 11.5384461,45.5495382,0 11.5381324,45.5495427,0 11.5374104,45.5495518,0 11.5364469,45.5495582,0</coordinates></LineString></Placemark><Placemark><name>Contrà Busato</name><description>Zona 1 - 18 posti</description><styleUrl>#zona1</styleUrl><LineString><tessellate>1</tessellate><coordinates>11.5392678,45.5507129,0 11.5392351,45.5506874,0 11.5390589,45.55055,0 11.5387882,45.5502851,0 11.5386621,45.5501041,0</coordinates></LineString></Placemark><Placemark><name>Contrà Busato</name><description>Zona 1 - 18 posti</description><styleUrl>#zona1</styleUrl><LineString><tessellate>1</tessellate><coordinates>11.5386621,45.5501041,0 11.5385245,45.5496119,0 11.5385037,45.5495374,0</coordinates></LineString></Placemark><Placemark><name>Contrà Borghetto</name><description>Zona 1 - 7 posti</description><styleUrl>#zona1</styleUrl><LineString><tessellate>1</tessellate><coordinates>11.5385685,45.5512323,0 11.5386185,45.5512558,0 11.5387065,45.5512971,0 11.5387346,45.5513303,0 11.5386105,45.5515973,0 11.5384834,45.5518159,0</coordinates></LineString></Placemark><Placemark><name>Contrà Borghetto</name><description>Zona 1 - 7 posti</description><styleUrl>#zona1</styleUrl><LineString><tessellate>1</tessellate><coordinates>11.537285,45.5524569,0 11.5379632,45.5523226,0 11.5380868,45.5522952,0 11.5381201,45.5522828,0 11.5381165,45.552251,0 11.5381149,45.5522096,0 11.5381098,45.5521765,0</coordinates></LineString></Placemark><Placemark><name>Contrà Borghetto</name><description>Zona 1 - 7 posti</description><styleUrl>#zona1</styleUrl><LineString><tessellate>1</tessellate><coordinates>11.5384834,45.5518159,0 11.5382231,45.5521043,0 11.5381712,45.5521495,0 11.5381098,45.5521765,0</coordinates></LineString></Placemark><Placemark><name>Contrà Lodi</name><description>Zona 1 - 24 posti</description><styleUrl>#zona1</styleUrl><LineString><tessellate>1</tessellate><coordinates>11.5382501,45.5485933,0 11.5384092,45.5486014,0 11.5390733,45.548635,0 11.5402565,45.5486931,0</coordinates></LineString></Placemark><Placemark><name>Contra' Porta Nova</name><description>Zona 1 - 21 posti</description><styleUrl>#zona1</styleUrl><LineString><tessellate>1</tessellate><coordinates>11.5382501,45.5485933,0 11.5382299,45.5485096,0 11.5380274,45.547671,0 11.5380167,45.5476268,0 11.538002,45.547566,0</coordinates></LineString></Placemark><Placemark><name>Contra' Porta Nova</name><description>Zona 1 - 21 posti</description><styleUrl>#zona1</styleUrl><LineString><tessellate>1</tessellate><coordinates>11.5378253,45.5469878,0 11.5378082,45.5469227,0</coordinates></LineString></Placemark><Placemark><name>Contra' Porta Nova</name><description>Zona 1 - 21 posti</description><styleUrl>#zona1</styleUrl><LineString><tessellate>1</tessellate><coordinates>11.538002,45.547566,0 11.5379741,45.5474748,0 11.5379534,45.547407,0 11.5378253,45.5469878,0</coordinates></LineString></Placemark><Placemark><name>Corso Fogazzaro</name><description>Zona 1 - 13 posti</description><styleUrl>#zona1</styleUrl><LineString><tessellate>1</tessellate><coordinates>11.5433995,45.5477935,0 11.543525,45.5477098,0 11.5436977,45.5475546,0 11.5438281,45.5474036,0 11.5439459,45.5472448,0</coordinates></LineString></Placemark><Placemark><name>Corso Fogazzaro</name><description>Zona 1 - 13 posti</description><styleUrl>#zona1</styleUrl><LineString><tessellate>1</tessellate><coordinates>11.5414983,45.5494079,0 11.541482,45.54942,0 11.5411476,45.5496699,0 11.5408798,45.5497803,0</coordinates></LineString></Placemark><Placemark><name>Corso Fogazzaro</name><description>Zona 1 - 13 posti</description><styleUrl>#zona1</styleUrl><LineString><tessellate>1</tessellate><coordinates>11.5391607,45.551171,0 11.5392733,45.5510634,0 11.5390797,45.5509537,0 11.538676,45.5512215,0 11.5387053,45.5512378,0 11.5387309,45.551252,0 11.5387922,45.5513097,0 11.5389847,45.5510928,0 11.5391607,45.551171,0</coordinates></LineString></Placemark><Placemark><name>Corso Fogazzaro</name><description>Zona 1 - 13 posti</description><styleUrl>#zona1</styleUrl><LineString><tessellate>1</tessellate><coordinates>11.538676,45.5512215,0 11.5386185,45.5512558,0</coordinates></LineString></Placemark><Placemark><name>Corso Fogazzaro</name><description>Zona 1 - 13 posti</description><styleUrl>#zona1</styleUrl><LineString><tessellate>1</tessellate><coordinates>11.5390797,45.5509537,0 11.5390628,45.5509443,0 11.5390094,45.5509146,0</coordinates></LineString></Placemark><Placemark><name>Corso Fogazzaro</name><description>Zona 1 - 13 posti</description><styleUrl>#zona1</styleUrl><LineString><tessellate>1</tessellate><coordinates>11.5430673,45.5480387,0 11.5432043,45.5479322,0 11.5433995,45.5477935,0</coordinates></LineString></Placemark><Placemark><name>Corso Fogazzaro</name><description>Zona 1 - 13 posti</description><styleUrl>#zona1</styleUrl><LineString><tessellate>1</tessellate><coordinates>11.5430673,45.5480387,0 11.5428007,45.5482624,0 11.5425751,45.5484795,0 11.5424918,45.5485594,0</coordinates></LineString></Placemark><Placemark><name>Corso Fogazzaro</name><description>Zona 1 - 13 posti</description><styleUrl>#zona1</styleUrl><LineString><tessellate>1</tessellate><coordinates>11.5392678,45.5507129,0 11.5396186,45.5504387,0 11.5401702,45.550103,0 11.5408798,45.5497803,0</coordinates></LineString></Placemark><Placemark><name>Corso Fogazzaro</name><description>Zona 1 - 13 posti</description><styleUrl>#zona1</styleUrl><LineString><tessellate>1</tessellate><coordinates>11.5385685,45.5512323,0 11.5387352,45.5511268,0 11.5390094,45.5509146,0 11.5392678,45.5507129,0</coordinates></LineString></Placemark><Placemark><name>Corso Fogazzaro</name><description>Zona 1 - 13 posti</description><styleUrl>#zona1</styleUrl><LineString><tessellate>1</tessellate><coordinates>11.5424918,45.5485594,0 11.542416,45.5486393,0 11.542353,45.5486969,0 11.5423331,45.5487151,0 11.5421148,45.5489002,0 11.5417373,45.5492111,0 11.5414983,45.5494079,0</coordinates></LineString></Placemark><Placemark><name>Stradella Borghetto</name><description>Zona 1 - 7 posti</description><styleUrl>#zona1</styleUrl><LineString><tessellate>1</tessellate><coordinates>11.5381098,45.5521765,0 11.5380266,45.5521841,0 11.5379493,45.5521662,0 11.5378126,45.5521019,0 11.5375209,45.5519648,0 11.5374654,45.5519387,0</coordinates></LineString></Placemark><Placemark><name>Porta S.Croce</name><description>Zona 1 - 10 posti</description><styleUrl>#zona1</styleUrl><LineString><tessellate>1</tessellate><coordinates>11.5374654,45.5519387,0 11.5377197,45.5516671,0 11.5380762,45.5514043,0 11.5382324,45.5513206,0 11.5383624,45.551281,0 11.5385685,45.5512323,0</coordinates></LineString></Placemark><Placemark><name>Porta S.Croce</name><description>Zona 1 - 10 posti</description><styleUrl>#zona1</styleUrl><LineString><tessellate>1</tessellate><coordinates>11.5370484,45.5524927,0 11.5369888,45.5526335,0 11.5369734,45.5526596,0 11.5369476,45.5526838,0 11.5369158,45.5527024,0 11.5368784,45.552717,0 11.5367227,45.5527531,0 11.5366894,45.5527648,0 11.5366685,45.5527775,0 11.5366534,45.5528,0</coordinates></LineString></Placemark><Placemark><name>Porta S.Croce</name><description>Zona 1 - 10 posti</description><styleUrl>#zona1</styleUrl><LineString><tessellate>1</tessellate><coordinates>11.536637,45.5526894,0 11.536697,45.5526479,0 11.5367624,45.5526073,0</coordinates></LineString></Placemark><Placemark><name>Porta S.Croce</name><description>Zona 1 - 10 posti</description><styleUrl>#zona1</styleUrl><LineString><tessellate>1</tessellate><coordinates>11.5374654,45.5519387,0 11.5374356,45.5519852,0 11.5372256,45.5522127,0 11.5371196,45.5523244,0</coordinates></LineString></Placemark><Placemark><name>Porta S.Croce</name><description>Zona 1 - 10 posti</description><styleUrl>#zona1</styleUrl><LineString><tessellate>1</tessellate><coordinates>11.5368281,45.552564,0 11.5369681,45.5524777,0 11.537024,45.5524333,0 11.5371196,45.5523244,0</coordinates></LineString></Placemark><Placemark><name>Porta S.Croce</name><description>Zona 1 - 10 posti</description><styleUrl>#zona1</styleUrl><LineString><tessellate>1</tessellate><coordinates>11.5367624,45.5526073,0 11.5367863,45.5525898,0</coordinates></LineString></Placemark><Placemark><name>Porta S.Croce</name><description>Zona 1 - 10 posti</description><styleUrl>#zona1</styleUrl><LineString><tessellate>1</tessellate><coordinates>11.5366177,45.5527007,0 11.536637,45.5526894,0</coordinates></LineString></Placemark><Placemark><name>Porta S.Croce</name><description>Zona 1 - 10 posti</description><styleUrl>#zona1</styleUrl><LineString><tessellate>1</tessellate><coordinates>11.5363462,45.5527779,0 11.5364284,45.552769,0 11.5364883,45.5527567,0 11.5365386,45.5527429,0</coordinates></LineString></Placemark><Placemark><name>Porta S.Croce</name><description>Zona 1 - 10 posti</description><styleUrl>#zona1</styleUrl><LineString><tessellate>1</tessellate><coordinates>11.5366534,45.5528,0 11.5366474,45.5528222,0 11.5366451,45.5528471,0 11.5366468,45.5528924,0</coordinates></LineString></Placemark><Placemark><name>Porta S.Croce</name><description>Zona 1 - 10 posti</description><styleUrl>#zona1</styleUrl><LineString><tessellate>1</tessellate><coordinates>11.5371196,45.5523244,0 11.5370484,45.5524927,0</coordinates></LineString></Placemark><Placemark><name>Porta S.Croce</name><description>Zona 1 - 10 posti</description><styleUrl>#zona1</styleUrl><LineString><tessellate>1</tessellate><coordinates>11.5367863,45.5525898,0 11.5368281,45.552564,0</coordinates></LineString></Placemark><Placemark><name>Porta S.Croce</name><description>Zona 1 - 10 posti</description><styleUrl>#zona1</styleUrl><LineString><tessellate>1</tessellate><coordinates>11.5365386,45.5527429,0 11.5366177,45.5527007,0</coordinates></LineString></Placemark><Placemark><name>Mure Corpus Domini</name><description>Zona 1 - 22 posti</description><styleUrl>#zona1</styleUrl><LineString><tessellate>1</tessellate><coordinates>11.5365782,45.5505088,0 11.5367549,45.5514726,0 11.5369542,45.5516813,0 11.5374321,45.5519228,0 11.5374654,45.5519387,0</coordinates></LineString></Placemark><Placemark><name>Contrà Corpus Domini</name><description>Zona 1 - 12 posti</description><styleUrl>#zona1</styleUrl><LineString><tessellate>1</tessellate><coordinates>11.5374881,45.5503265,0 11.5374215,45.5501051,0</coordinates></LineString></Placemark><Placemark><name>Contrà Corpus Domini</name><description>Zona 1 - 12 posti</description><styleUrl>#zona1</styleUrl><LineString><tessellate>1</tessellate><coordinates>11.5375593,45.5503158,0 11.5376242,45.5504718,0 11.5373171,45.5505405,0 11.5373903,45.550751,0</coordinates></LineString></Placemark><Placemark><name>Contrà Corpus Domini</name><description>Zona 1 - 12 posti</description><styleUrl>#zona1</styleUrl><LineString><tessellate>1</tessellate><coordinates>11.5365782,45.5505088,0 11.5374881,45.5503265,0 11.5375593,45.5503158,0 11.5386621,45.5501041,0</coordinates></LineString></Placemark><Placemark><name>Contrà S.Ambrogio</name><description>Zona 1 - 15 posti</description><styleUrl>#zona1</styleUrl><LineString><tessellate>1</tessellate><coordinates>11.5385037,45.5495374,0 11.5384859,45.5494712,0 11.5382782,45.5486978,0 11.5382501,45.5485933,0</coordinates></LineString></Placemark><Placemark><name>Str.lla Soccorso Socc.to</name><description>Zona 1 - 4 posti</description><styleUrl>#zona1</styleUrl><LineString><tessellate>1</tessellate><coordinates>11.5385037,45.5495374,0 11.5386003,45.549543,0 11.5386415,45.5495429,0 11.539157,45.5495412,0 11.5394059,45.5495466,0</coordinates></LineString></Placemark><Placemark><name>Str.lla Soccorso Socc.to</name><description>Zona 1 - 4 posti</description><styleUrl>#zona1</styleUrl><LineString><tessellate>1</tessellate><coordinates>11.5394059,45.5495466,0 11.5398623,45.5495625,0 11.539925,45.5495705,0 11.5400048,45.5495902,0</coordinates></LineString></Placemark><Placemark><name>Str.lla Soccorso Socc.to</name><description>Zona 1 - 4 posti</description><styleUrl>#zona1</styleUrl><LineString><tessellate>1</tessellate><coordinates>11.5400048,45.5495902,0 11.5402407,45.5495855,0 11.5403962,45.549577,0 11.5405393,45.54956,0 11.5406566,45.5495319,0</coordinates></LineString></Placemark><Placemark><name>Contrà Mure Porta Nova</name><description>Zona 1 - 24 posti</description><styleUrl>#zona1</styleUrl><LineString><tessellate>1</tessellate><coordinates>11.5400042,45.5471268,0 11.5398623,45.5471056,0 11.5397337,45.5470859,0 11.5395208,45.5470671,0 11.539517,45.5470671,0 11.5389386,45.5470265,0 11.538,45.5469662,0 11.5379176,45.5469646,0 11.5378253,45.5469878,0</coordinates></LineString></Placemark><Placemark><name>Via G.B. Vico</name><description>Zona 2 - 125 posti</description><styleUrl>#zona2</styleUrl><LineString><tessellate>1</tessellate><coordinates>11.537887,45.5533856,0 11.5390578,45.5543424,0 11.5390854,45.554365,0</coordinates></LineString></Placemark><Placemark><name>Via G.B. Vico</name><description>Zona 2 - 125 posti</description><styleUrl>#zona2</styleUrl><LineString><tessellate>1</tessellate><coordinates>11.5419011,45.5565618,0 11.5418663,45.5565624,0 11.5418394,45.5565612,0 11.5418188,45.5565564,0 11.541717,45.5564855,0 11.5403277,45.5553993,0 11.5402238,45.5553181,0 11.5402042,45.5553028,0 11.5401718,45.5552732,0 11.5400131,45.5551456,0 11.539236,45.5544934,0 11.5391804,45.5544467,0 11.539126,45.5543999,0 11.5391171,45.5543923,0 11.5390854,45.554365,0</coordinates></LineString></Placemark><Placemark><name>Via G.B. Vico</name><description>Zona 2 - 125 posti</description><styleUrl>#zona2</styleUrl><LineString><tessellate>1</tessellate><coordinates>11.5420197,45.5565555,0 11.5419495,45.5565613,0 11.5419011,45.5565618,0</coordinates></LineString></Placemark><Placemark><name>Via Galilei</name><description>Zona 2 - 61 posti</description><styleUrl>#zona2</styleUrl><LineString><tessellate>1</tessellate><coordinates>11.5396591,45.5540216,0 11.5397014,45.5540628,0 11.5397427,45.5541016,0 11.5398012,45.5541484,0 11.5398404,45.5541797,0 11.540103,45.5543896,0 11.5402632,45.5545176,0 11.5405154,45.5547192,0 11.5405305,45.5547313,0 11.5405464,45.554744,0 11.5405969,45.5547843,0 11.540739,45.5548974,0 11.5407714,45.5549232,0 11.5407909,45.5549435,0 11.540815,45.5549639,0 11.5415479,45.5555836,0 11.5415987,45.555619,0 11.5416705,45.5556445,0 11.5417039,45.5556522,0 11.5417363,45.5556521,0 11.5417898,45.5556459,0</coordinates></LineString></Placemark><Placemark><name>Via Galilei</name><description>Zona 2 - 61 posti</description><styleUrl>#zona2</styleUrl><LineString><tessellate>1</tessellate><coordinates>11.5396591,45.5540216,0 11.5396197,45.5539902,0 11.5390364,45.5535159,0 11.5390341,45.5534995,0 11.5390273,45.5534506,0</coordinates></LineString></Placemark><Placemark><name>Via Pacinotti</name><description>Zona 2 - 17 posti</description><styleUrl>#zona2</styleUrl><LineString><tessellate>1</tessellate><coordinates>11.5394312,45.5535765,0 11.5394453,45.553554,0 11.5396283,45.5532616,0 11.5393533,45.5527833,0</coordinates></LineString></Placemark><Placemark><name>Via Pagliarino</name><description>Zona 2 - 35 posti</description><styleUrl>#zona2</styleUrl><LineString><tessellate>1</tessellate><coordinates>11.5417588,45.5554973,0 11.5415791,45.5547711,0 11.5415473,45.5546923,0</coordinates></LineString></Placemark><Placemark><name>Via Pagliarino</name><description>Zona 2 - 35 posti</description><styleUrl>#zona2</styleUrl><LineString><tessellate>1</tessellate><coordinates>11.5419912,45.5572356,0 11.5420008,45.5571607,0 11.5420208,45.5570281,0 11.5420376,45.5568732,0 11.5420415,45.5567447,0 11.5420362,45.5566657,0 11.5420287,45.5566137,0 11.5420197,45.5565555,0 11.5419858,45.5563989,0</coordinates></LineString></Placemark><Placemark><name>Via Pagliarino</name><description>Zona 2 - 35 posti</description><styleUrl>#zona2</styleUrl><LineString><tessellate>1</tessellate><coordinates>11.5419912,45.5572356,0 11.5419807,45.5573301,0</coordinates></LineString></Placemark><Placemark><name>Via Pagliarino</name><description>Zona 2 - 35 posti</description><styleUrl>#zona2</styleUrl><LineString><tessellate>1</tessellate><coordinates>11.5419858,45.5563989,0 11.5419273,45.5561515,0 11.5418478,45.5558693,0 11.5417898,45.5556459,0</coordinates></LineString></Placemark><Placemark><name>Via Pagliarino</name><description>Zona 2 - 35 posti</description><styleUrl>#zona2</styleUrl><LineString><tessellate>1</tessellate><coordinates>11.5417898,45.5556459,0 11.5417588,45.5554973,0</coordinates></LineString></Placemark><Placemark><name>Via Pajello</name><description>Zona 2 - 61 posti</description><styleUrl>#zona2</styleUrl><LineString><tessellate>1</tessellate><coordinates>11.5407714,45.5549232,0 11.5410865,45.5547346,0 11.5412239,45.5546428,0 11.5412856,45.5546016,0</coordinates></LineString></Placemark><Placemark><name>Via Pajello</name><description>Zona 2 - 61 posti</description><styleUrl>#zona2</styleUrl><LineString><tessellate>1</tessellate><coordinates>11.5407714,45.5549232,0 11.5406959,45.5549673,0 11.5406424,45.5550057,0 11.5401718,45.5552732,0 11.5399147,45.5554136,0 11.5398679,45.5554448,0 11.5398106,45.5554916,0</coordinates></LineString></Placemark><Placemark><name>Via Pajello</name><description>Zona 2 - 61 posti</description><styleUrl>#zona2</styleUrl><LineString><tessellate>1</tessellate><coordinates>11.5400131,45.5551456,0 11.5402174,45.555011,0 11.5394712,45.5544304,0 11.539409,45.5543917,0 11.5392835,45.5544655,0 11.539236,45.5544934,0</coordinates></LineString></Placemark><Placemark><name>Via Pajello</name><description>Zona 2 - 61 posti</description><styleUrl>#zona2</styleUrl><LineString><tessellate>1</tessellate><coordinates>11.5394712,45.5544304,0 11.5396104,45.5543381,0 11.5396209,45.5543311,0</coordinates></LineString></Placemark><Placemark><name>Via Pajello</name><description>Zona 2 - 61 posti</description><styleUrl>#zona2</styleUrl><LineString><tessellate>1</tessellate><coordinates>11.5403678,45.5549199,0 11.5403608,45.5549242,0 11.5402174,45.555011,0</coordinates></LineString></Placemark><Placemark><name>Via Pajello</name><description>Zona 2 - 61 posti</description><styleUrl>#zona2</styleUrl><LineString><tessellate>1</tessellate><coordinates>11.5398012,45.5541484,0 11.5397598,45.5541739,0 11.5396058,45.5542686,0 11.5396531,45.5543112,0 11.5396209,45.5543311,0 11.5403678,45.5549199,0 11.5405595,45.5548064,0 11.5405969,45.5547843,0</coordinates></LineString></Placemark><Placemark><name>Via Sarpi</name><description>Zona 2 - 66 posti</description><styleUrl>#zona2</styleUrl><LineString><tessellate>1</tessellate><coordinates>11.5399906,45.5537581,0 11.5400576,45.5536746,0 11.5403664,45.5532499,0</coordinates></LineString></Placemark><Placemark><name>Via Sarpi</name><description>Zona 2 - 66 posti</description><styleUrl>#zona2</styleUrl><LineString><tessellate>1</tessellate><coordinates>11.5387328,45.5545833,0 11.5387835,45.5545567,0 11.5390854,45.554365,0 11.5395807,45.5540657,0 11.5396591,45.5540216,0</coordinates></LineString></Placemark><Placemark><name>Via Sarpi</name><description>Zona 2 - 66 posti</description><styleUrl>#zona2</styleUrl><LineString><tessellate>1</tessellate><coordinates>11.5399906,45.5537581,0 11.5399354,45.5538314,0 11.5397315,45.5539785,0 11.5397206,45.553985,0 11.5396591,45.5540216,0</coordinates></LineString></Placemark><Placemark><name>Via Sarpi</name><description>Zona 2 - 66 posti</description><styleUrl>#zona2</styleUrl><LineString><tessellate>1</tessellate><coordinates>11.5403664,45.5532499,0 11.5409659,45.5524843,0 11.5409693,45.5524698,0 11.5409797,45.5524257,0</coordinates></LineString></Placemark><Placemark><name>Via Tasso</name><description>Zona 2 - 7 posti</description><styleUrl>#zona2</styleUrl><LineString><tessellate>1</tessellate><coordinates>11.5433731,45.5553848,0 11.5432091,45.5553913,0 11.5429822,45.5554133,0 11.5420017,45.5556121,0 11.5418699,45.5556358,0 11.5418569,45.5556375,0 11.5417898,45.5556459,0</coordinates></LineString></Placemark><Placemark><name>Via Torricelli</name><description>Zona 2 - 7 posti</description><styleUrl>#zona2</styleUrl><LineString><tessellate>1</tessellate><coordinates>11.5390273,45.5534506,0 11.5390219,45.553407,0 11.5390192,45.5533857,0 11.5387454,45.5528548,0</coordinates></LineString></Placemark><Placemark><name>Via Volta</name><description>Zona 2 - 51 posti</description><styleUrl>#zona2</styleUrl><LineString><tessellate>1</tessellate><coordinates>11.5380934,45.5531576,0 11.5381993,45.5531908,0 11.5389175,45.5534162,0 11.5390273,45.5534506,0</coordinates></LineString></Placemark><Placemark><name>Via Volta</name><description>Zona 2 - 51 posti</description><styleUrl>#zona2</styleUrl><LineString><tessellate>1</tessellate><coordinates>11.5399906,45.5537581,0 11.540095,45.5537881,0 11.5413505,45.5542087,0 11.5414547,45.5542437,0</coordinates></LineString></Placemark><Placemark><name>Via Volta</name><description>Zona 2 - 51 posti</description><styleUrl>#zona2</styleUrl><LineString><tessellate>1</tessellate><coordinates>11.5390273,45.5534506,0 11.5394312,45.5535765,0 11.5399133,45.5537289,0 11.5399906,45.5537581,0</coordinates></LineString></Placemark><Placemark><name>Viale Bacchiglione</name><description>Zona 2 - 18 posti</description><styleUrl>#zona2</styleUrl><LineString><tessellate>1</tessellate><coordinates>11.5397493,45.552432,0 11.5391172,45.552547,0 11.5383636,45.5526738,0 11.538167,45.5527195,0 11.5381002,45.5527662,0 11.5381008,45.5529558,0 11.538101,45.5530054,0 11.5380934,45.5531576,0</coordinates></LineString></Placemark><Placemark><name>Viale Bacchiglione</name><description>Zona 2 - 18 posti</description><styleUrl>#zona2</styleUrl><LineString><tessellate>1</tessellate><coordinates>11.5380934,45.5531576,0 11.537887,45.5533856,0 11.5376153,45.5535274,0 11.537558,45.5535654,0 11.5375151,45.5535938,0</coordinates></LineString></Placemark><Placemark><name>Viale Rodolfi</name><description>Zona 2 - 118 posti</description><styleUrl>#zona2</styleUrl><LineString><tessellate>1</tessellate><coordinates>11.5516894,45.5531458,0 11.5518082,45.5530911,0 11.5518569,45.5530767,0 11.551955,45.5530483,0 11.5520536,45.5530151,0 11.5520898,45.5530089,0 11.5521254,45.5530056,0 11.5521964,45.5530042,0 11.5523119,45.5529897,0</coordinates></LineString></Placemark><Placemark><name>Viale Rodolfi</name><description>Zona 2 - 118 posti</description><styleUrl>#zona2</styleUrl><LineString><tessellate>1</tessellate><coordinates>11.5486881,45.5573825,0 11.5487343,45.5572927,0 11.5488058,45.5571161,0</coordinates></LineString></Placemark><Placemark><name>Viale Rodolfi</name><description>Zona 2 - 118 posti</description><styleUrl>#zona2</styleUrl><LineString><tessellate>1</tessellate><coordinates>11.5488058,45.5571161,0 11.5488314,45.5572346,0 11.5488887,45.5574192,0</coordinates></LineString></Placemark><Placemark><name>Viale Rodolfi</name><description>Zona 2 - 118 posti</description><styleUrl>#zona2</styleUrl><LineString><tessellate>1</tessellate><coordinates>11.5487604,45.5564914,0 11.5487622,45.55651,0</coordinates></LineString></Placemark><Placemark><name>Viale Rodolfi</name><description>Zona 2 - 118 posti</description><styleUrl>#zona2</styleUrl><LineString><tessellate>1</tessellate><coordinates>11.5487604,45.5564914,0 11.548719,45.5564018,0 11.5487008,45.5562936,0</coordinates></LineString></Placemark><Placemark><name>Viale Rodolfi</name><description>Zona 2 - 118 posti</description><styleUrl>#zona2</styleUrl><LineString><tessellate>1</tessellate><coordinates>11.5487054,45.5557513,0 11.5487222,45.5558507,0</coordinates></LineString></Placemark><Placemark><name>Viale Rodolfi</name><description>Zona 2 - 118 posti</description><styleUrl>#zona2</styleUrl><LineString><tessellate>1</tessellate><coordinates>11.5516894,45.5531458,0 11.551049,45.5533406,0 11.5508575,45.5533996,0 11.5506983,45.5534688,0 11.5505764,45.5535357,0 11.5504692,45.5536136,0 11.5503906,45.5536804,0 11.5503213,45.5537557,0 11.5495811,45.5546177,0 11.5495175,45.5546885,0 11.5492447,45.5549831,0 11.5489773,45.5553077,0</coordinates></LineString></Placemark><Placemark><name>Viale Rodolfi</name><description>Zona 2 - 118 posti</description><styleUrl>#zona2</styleUrl><LineString><tessellate>1</tessellate><coordinates>11.5487622,45.55651,0 11.5487831,45.5567747,0 11.5487865,45.5568094,0 11.5488007,45.5570079,0 11.5488058,45.5571161,0</coordinates></LineString></Placemark><Placemark><name>Viale Rodolfi</name><description>Zona 2 - 118 posti</description><styleUrl>#zona2</styleUrl><LineString><tessellate>1</tessellate><coordinates>11.5486639,45.5558581,0 11.5487054,45.5557513,0</coordinates></LineString></Placemark><Placemark><name>Viale Rodolfi</name><description>Zona 2 - 118 posti</description><styleUrl>#zona2</styleUrl><LineString><tessellate>1</tessellate><coordinates>11.5487522,45.5560735,0 11.5487543,45.5561005,0 11.5487649,45.556235,0 11.548774,45.5563328,0</coordinates></LineString></Placemark><Placemark><name>Viale Rodolfi</name><description>Zona 2 - 118 posti</description><styleUrl>#zona2</styleUrl><LineString><tessellate>1</tessellate><coordinates>11.5487008,45.5562936,0 11.5486997,45.5562185,0</coordinates></LineString></Placemark><Placemark><name>Viale Rodolfi</name><description>Zona 2 - 118 posti</description><styleUrl>#zona2</styleUrl><LineString><tessellate>1</tessellate><coordinates>11.548774,45.5563328,0 11.5487719,45.5564008,0 11.5487604,45.5564914,0</coordinates></LineString></Placemark><Placemark><name>Viale Rodolfi</name><description>Zona 2 - 118 posti</description><styleUrl>#zona2</styleUrl><LineString><tessellate>1</tessellate><coordinates>11.5486997,45.5562185,0 11.5486696,45.5559591,0</coordinates></LineString></Placemark><Placemark><name>Viale Rodolfi</name><description>Zona 2 - 118 posti</description><styleUrl>#zona2</styleUrl><LineString><tessellate>1</tessellate><coordinates>11.5486696,45.5559591,0 11.5486639,45.5558581,0</coordinates></LineString></Placemark><Placemark><name>Viale Rodolfi</name><description>Zona 2 - 118 posti</description><styleUrl>#zona2</styleUrl><LineString><tessellate>1</tessellate><coordinates>11.5487222,45.5558507,0 11.5487522,45.5560735,0</coordinates></LineString></Placemark><Placemark><name>Viale Rodolfi</name><description>Zona 2 - 118 posti</description><styleUrl>#zona2</styleUrl><LineString><tessellate>1</tessellate><coordinates>11.5489773,45.5553077,0 11.5488714,45.555457,0 11.5487638,45.5556126,0 11.5487217,45.55571,0 11.5487054,45.5557513,0</coordinates></LineString></Placemark><Placemark><name>Viale D'Alviano</name><description>Zona 2 - 84 posti</description><styleUrl>#zona2</styleUrl><LineString><tessellate>1</tessellate><coordinates>11.5439582,45.5583457,0 11.5438139,45.5583465,0 11.5436631,45.5583357,0 11.5434564,45.5582952,0 11.5433606,45.5582709,0 11.5432628,45.5582409,0 11.543154,45.5581991,0 11.5430454,45.5581492,0 11.5428299,45.5580306,0 11.5421481,45.5574713,0 11.5420369,45.5573733,0 11.5419807,45.5573301,0</coordinates></LineString></Placemark><Placemark><name>Viale D'Alviano</name><description>Zona 2 - 84 posti</description><styleUrl>#zona2</styleUrl><LineString><tessellate>1</tessellate><coordinates>11.5443259,45.5580833,0 11.5443366,45.558037,0 11.5443637,45.557994,0 11.5444055,45.5579572,0</coordinates></LineString></Placemark><Placemark><name>Viale D'Alviano</name><description>Zona 2 - 84 posti</description><styleUrl>#zona2</styleUrl><LineString><tessellate>1</tessellate><coordinates>11.5368411,45.5531541,0 11.5365648,45.5529383,0</coordinates></LineString></Placemark><Placemark><name>Viale D'Alviano</name><description>Zona 2 - 84 posti</description><styleUrl>#zona2</styleUrl><LineString><tessellate>1</tessellate><coordinates>11.5419807,45.5573301,0 11.541758,45.5571569,0 11.5413837,45.5568518,0 11.5398579,45.5556497,0 11.5397543,45.5555585,0</coordinates></LineString></Placemark><Placemark><name>Viale D'Alviano</name><description>Zona 2 - 84 posti</description><styleUrl>#zona2</styleUrl><LineString><tessellate>1</tessellate><coordinates>11.5369337,45.553112,0 11.5370448,45.5532118,0 11.5372667,45.5533913,0 11.5375151,45.5535938,0 11.5383407,45.5542743,0 11.5387328,45.5545833,0 11.5396843,45.5553945,0 11.5398106,45.5554916,0</coordinates></LineString></Placemark><Placemark><name>Viale D'Alviano</name><description>Zona 2 - 84 posti</description><styleUrl>#zona2</styleUrl><LineString><tessellate>1</tessellate><coordinates>11.5366468,45.5528924,0 11.5369337,45.553112,0</coordinates></LineString></Placemark><Placemark><name>Viale D'Alviano</name><description>Zona 2 - 84 posti</description><styleUrl>#zona2</styleUrl><LineString><tessellate>1</tessellate><coordinates>11.5397543,45.5555585,0 11.5395914,45.5554521,0 11.5382677,45.5543148,0 11.5381561,45.5542201,0 11.5379698,45.5540693,0 11.5375379,45.5537178,0 11.5370885,45.5533512,0 11.5369747,45.5532577,0 11.5368411,45.5531541,0</coordinates></LineString></Placemark><Placemark><name>Viale D'Alviano</name><description>Zona 2 - 84 posti</description><styleUrl>#zona2</styleUrl><LineString><tessellate>1</tessellate><coordinates>11.5419912,45.5572356,0 11.5420524,45.5572869,0 11.5422216,45.5574258,0 11.542542,45.5576847,0 11.5426661,45.5577829,0 11.5428223,45.5579027,0 11.5429344,45.557969,0 11.5430267,45.5580114,0 11.5432723,45.5581088,0 11.5434586,45.5581639,0 11.5435644,45.5581841,0 11.5436721,45.5581989,0 11.5437589,45.5582066,0 11.5438393,45.5582084,0 11.543891,45.5582066,0 11.5439481,45.5582014,0</coordinates></LineString></Placemark><Placemark><name>Viale D'Alviano</name><description>Zona 2 - 84 posti</description><styleUrl>#zona2</styleUrl><LineString><tessellate>1</tessellate><coordinates>11.5398106,45.5554916,0 11.5399251,45.555572,0 11.5414046,45.556766,0 11.5418312,45.5571103,0 11.5419912,45.5572356,0</coordinates></LineString></Placemark><Placemark><name>Viale D'Alviano</name><description>Zona 2 - 84 posti</description><styleUrl>#zona2</styleUrl><LineString><tessellate>1</tessellate><coordinates>11.5448324,45.5580216,0 11.544849,45.5580679,0 11.544848,45.5581157,0 11.5448295,45.5581616,0 11.5447947,45.5582027,0</coordinates></LineString></Placemark><Placemark><name>Viale D'Alviano</name><description>Zona 2 - 84 posti</description><styleUrl>#zona2</styleUrl><LineString><tessellate>1</tessellate><coordinates>11.5447564,45.5582303,0 11.5447104,45.5582518,0 11.5446591,45.5582661,0 11.5446046,45.5582726,0</coordinates></LineString></Placemark><Placemark><name>Viale D'Alviano</name><description>Zona 2 - 84 posti</description><styleUrl>#zona2</styleUrl><LineString><tessellate>1</tessellate><coordinates>11.544547,45.5582707,0 11.5444864,45.5582586,0 11.5444316,45.5582367,0 11.5443859,45.5582063,0 11.5443519,45.5581691,0 11.5443315,45.5581273,0 11.5443259,45.5580833,0</coordinates></LineString></Placemark><Placemark><name>Viale D'Alviano</name><description>Zona 2 - 84 posti</description><styleUrl>#zona2</styleUrl><LineString><tessellate>1</tessellate><coordinates>11.5446935,45.5579208,0 11.5447519,45.5579455,0 11.5447993,45.5579799,0 11.5448324,45.5580216,0</coordinates></LineString></Placemark><Placemark><name>Viale D'Alviano</name><description>Zona 2 - 84 posti</description><styleUrl>#zona2</styleUrl><LineString><tessellate>1</tessellate><coordinates>11.5444055,45.5579572,0 11.5444683,45.5579257,0 11.5445415,45.5579083,0 11.5446188,45.5579066,0 11.5446935,45.5579208,0</coordinates></LineString></Placemark><Placemark><name>Viale D'Alviano</name><description>Zona 2 - 84 posti</description><styleUrl>#zona2</styleUrl><LineString><tessellate>1</tessellate><coordinates>11.5446046,45.5582726,0 11.5445757,45.5582728,0 11.544547,45.5582707,0</coordinates></LineString></Placemark><Placemark><name>Viale D'Alviano</name><description>Zona 2 - 84 posti</description><styleUrl>#zona2</styleUrl><LineString><tessellate>1</tessellate><coordinates>11.5439481,45.5582014,0 11.5440916,45.5581798,0 11.5441964,45.5581557,0 11.5442733,45.5581253,0 11.5443259,45.5580833,0</coordinates></LineString></Placemark><Placemark><name>Viale D'Alviano</name><description>Zona 2 - 84 posti</description><styleUrl>#zona2</styleUrl><LineString><tessellate>1</tessellate><coordinates>11.544547,45.5582707,0 11.5443932,45.5582996,0 11.5442441,45.558322,0 11.5440974,45.5583367,0 11.5439582,45.5583457,0</coordinates></LineString></Placemark><Placemark><name>Viale D'Alviano</name><description>Zona 2 - 84 posti</description><styleUrl>#zona2</styleUrl><LineString><tessellate>1</tessellate><coordinates>11.5447947,45.5582027,0 11.5447564,45.5582303,0</coordinates></LineString></Placemark><Placemark><name>Contrà S. Bortolo</name><description>Zona 2 - 10 posti</description><styleUrl>#zona2</styleUrl><LineString><tessellate>1</tessellate><coordinates>11.5433731,45.5553848,0 11.5433123,45.5555063,0 11.5432478,45.5557051,0 11.5432399,45.5558196,0 11.5432513,45.5559162,0 11.5433412,45.5561312,0 11.5434991,45.5562862,0 11.5439551,45.556631,0 11.5440283,45.5566821,0 11.5441791,45.5568982,0 11.5442064,45.5569507,0 11.5442908,45.5571896,0 11.5444705,45.5577412,0 11.5444755,45.5577592,0</coordinates></LineString></Placemark><Placemark><name>Contrà S. Bortolo</name><description>Zona 2 - 10 posti</description><styleUrl>#zona2</styleUrl><LineString><tessellate>1</tessellate><coordinates>11.5444055,45.5579572,0 11.544448,45.5578869,0 11.5444623,45.5578362,0 11.5444755,45.5577592,0</coordinates></LineString></Placemark><Placemark><name>Contrà S. Bortolo</name><description>Zona 2 - 10 posti</description><styleUrl>#zona2</styleUrl><LineString><tessellate>1</tessellate><coordinates>11.5444755,45.5577592,0 11.5445341,45.5578248,0 11.5445991,45.5578751,0 11.5446935,45.5579208,0</coordinates></LineString></Placemark><Placemark><name>Contrà S. Francesco</name><description>Zona 2 - 3 posti</description><styleUrl>#zona2</styleUrl><LineString><tessellate>1</tessellate><coordinates>11.5430798,45.5527157,0 11.543058,45.5528604,0 11.5430192,45.5530044,0 11.5429566,45.553131,0 11.5426817,45.5534657,0 11.5426156,45.5536158,0 11.5425912,45.553764,0 11.5425839,45.553833,0</coordinates></LineString></Placemark><Placemark><name>Contrà S. Francesco</name><description>Zona 2 - 3 posti</description><styleUrl>#zona2</styleUrl><LineString><tessellate>1</tessellate><coordinates>11.5425972,45.553985,0 11.5426333,45.5540836,0 11.5426617,45.554149,0 11.5428601,45.5545104,0 11.5429681,45.5546485,0 11.543137,45.5548565,0 11.5432651,45.5550025,0 11.5433055,45.5550647,0 11.5433489,45.5551316,0 11.5433825,45.5552532,0 11.5433731,45.5553848,0</coordinates></LineString></Placemark><Placemark><name>Contrà S. Francesco</name><description>Zona 2 - 3 posti</description><styleUrl>#zona2</styleUrl><LineString><tessellate>1</tessellate><coordinates>11.5425839,45.553833,0 11.5425818,45.5538994,0 11.5425972,45.553985,0</coordinates></LineString></Placemark><Placemark><name>Contrà Forti San Francesco</name><description>Zona 2 - 6 posti</description><styleUrl>#zona2</styleUrl><LineString><tessellate>1</tessellate><coordinates>11.5416358,45.5542868,0 11.5416977,45.554299,0 11.5417472,45.5543011,0 11.5418114,45.5542914,0</coordinates></LineString></Placemark><Placemark><name>Contrà Forti San Francesco</name><description>Zona 2 - 6 posti</description><styleUrl>#zona2</styleUrl><LineString><tessellate>1</tessellate><coordinates>11.5424225,45.554109,0 11.5424816,45.5540394,0 11.542512,45.5540036,0 11.5425292,45.5539939,0 11.5425972,45.553985,0</coordinates></LineString></Placemark><Placemark><name>Contrà Forti San Francesco</name><description>Zona 2 - 6 posti</description><styleUrl>#zona2</styleUrl><LineString><tessellate>1</tessellate><coordinates>11.5418114,45.5542914,0 11.5418861,45.554276,0 11.5420943,45.5542265,0 11.5423134,45.5541686,0 11.5424225,45.554109,0</coordinates></LineString></Placemark><Placemark><name>Contrà della Misericordia</name><description>Zona 2 - 46 posti</description><styleUrl>#zona2</styleUrl><LineString><tessellate>1</tessellate><coordinates>11.5430798,45.5527157,0 11.5426681,45.5526299,0 11.5422048,45.5524967,0</coordinates></LineString></Placemark><Placemark><name>Contrà della Misericordia</name><description>Zona 2 - 46 posti</description><styleUrl>#zona2</styleUrl><LineString><tessellate>1</tessellate><coordinates>11.5398464,45.5524206,0 11.5397493,45.552432,0</coordinates></LineString></Placemark><Placemark><name>Contrà della Misericordia</name><description>Zona 2 - 46 posti</description><styleUrl>#zona2</styleUrl><LineString><tessellate>1</tessellate><coordinates>11.5415574,45.5524323,0 11.5415006,45.5524297,0 11.5411005,45.5524223,0 11.5409797,45.5524257,0</coordinates></LineString></Placemark><Placemark><name>Contrà della Misericordia</name><description>Zona 2 - 46 posti</description><styleUrl>#zona2</styleUrl><LineString><tessellate>1</tessellate><coordinates>11.5409797,45.5524257,0 11.5408228,45.5524197,0 11.5407909,45.5524174,0 11.5402184,45.5523923,0 11.5398464,45.5524206,0</coordinates></LineString></Placemark><Placemark><name>Contrà della Misericordia</name><description>Zona 2 - 46 posti</description><styleUrl>#zona2</styleUrl><LineString><tessellate>1</tessellate><coordinates>11.5422048,45.5524967,0 11.5415574,45.5524323,0</coordinates></LineString></Placemark><Placemark><name>Contrà S. Marco</name><description>Zona 2 - 7 posti</description><styleUrl>#zona2</styleUrl><LineString><tessellate>1</tessellate><coordinates>11.5438159,45.551548,0 11.5435431,45.5518489,0 11.5434354,45.5519731,0 11.543234,45.5522863,0 11.5431308,45.5524833,0 11.543107,45.5525918,0 11.5430798,45.5527157,0</coordinates></LineString></Placemark><Placemark><name>Contrà S. Marco</name><description>Zona 2 - 7 posti</description><styleUrl>#zona2</styleUrl><LineString><tessellate>1</tessellate><coordinates>11.5443447,45.551872,0 11.5442735,45.551822,0 11.5441798,45.5517523,0 11.5440329,45.5516368,0 11.5438411,45.5515203,0</coordinates></LineString></Placemark><Placemark><name>Contrà S. Marco</name><description>Zona 2 - 7 posti</description><styleUrl>#zona2</styleUrl><LineString><tessellate>1</tessellate><coordinates>11.5441922,45.5511415,0 11.5438411,45.5515203,0 11.5438159,45.551548,0</coordinates></LineString></Placemark><Placemark><name>Area Legione Gallieno</name><description>Zona 3 - 28 posti</description><styleUrl>#zona3</styleUrl><LineString><tessellate>1</tessellate><coordinates>11.5539798,45.5525348,0 11.5541974,45.552495,0</coordinates></LineString></Placemark><Placemark><name>Area Legione Gallieno</name><description>Zona 3 - 28 posti</description><styleUrl>#zona3</styleUrl><LineString><tessellate>1</tessellate><coordinates>11.5562314,45.5507404,0 11.5562726,45.5506323,0 11.5563106,45.5504127,0 11.55628,45.5502237,0 11.5561993,45.5499463,0 11.5561798,45.5498786,0 11.5560766,45.5495326,0 11.5560819,45.5494557,0 11.55605,45.5493181,0 11.5559173,45.5490532,0 11.5558087,45.5488654,0 11.5557515,45.5488096,0</coordinates></LineString></Placemark><Placemark><name>Area Legione Gallieno</name><description>Zona 3 - 28 posti</description><styleUrl>#zona3</styleUrl><LineString><tessellate>1</tessellate><coordinates>11.5541974,45.552495,0 11.5540083,45.5525747,0</coordinates></LineString></Placemark><Placemark><name>Area Legione Gallieno</name><description>Zona 3 - 28 posti</description><styleUrl>#zona3</styleUrl><LineString><tessellate>1</tessellate><coordinates>11.5541974,45.552495,0 11.5542394,45.5524754,0 11.5542849,45.5524498,0 11.5543231,45.5524244,0 11.554354,45.5524039,0 11.554921,45.5519968,0 11.5556172,45.5514937,0 11.5557759,45.5513761,0 11.5559907,45.551143,0 11.5562314,45.5507404,0</coordinates></LineString></Placemark><Placemark><name>Area Legione Gallieno</name><description>Zona 3 - 28 posti</description><styleUrl>#zona3</styleUrl><LineString><tessellate>1</tessellate><coordinates>11.5540083,45.5525747,0 11.5539208,45.5526175,0 11.5539111,45.552624,0 11.5538705,45.5526513,0 11.5538375,45.5526922,0</coordinates></LineString></Placemark><Placemark><name>Area Legione Gallieno</name><description>Zona 3 - 28 posti</description><styleUrl>#zona3</styleUrl><LineString><tessellate>1</tessellate><coordinates>11.5537664,45.5525841,0 11.5539798,45.5525348,0</coordinates></LineString></Placemark><Placemark><name>Contrà Mure S. Domenico</name><description>Zona 3 - 23 posti</description><styleUrl>#zona3</styleUrl><LineString><tessellate>1</tessellate><coordinates>11.5556464,45.5507252,0 11.5555777,45.5508505,0 11.555407,45.551032,0 11.5547424,45.5515017,0 11.5546695,45.5516048,0 11.5542269,45.551891,0</coordinates></LineString></Placemark><Placemark><name>Contrà S.Domenico</name><description>Zona 3 - 40 posti</description><styleUrl>#zona3</styleUrl><LineString><tessellate>1</tessellate><coordinates>11.5556055,45.5503702,0 11.5556386,45.5505971,0 11.5556464,45.5507252,0</coordinates></LineString></Placemark><Placemark><name>Contrà S.Domenico</name><description>Zona 3 - 40 posti</description><styleUrl>#zona3</styleUrl><LineString><tessellate>1</tessellate><coordinates>11.5562314,45.5507404,0 11.5560834,45.5507401,0 11.5556464,45.5507252,0</coordinates></LineString></Placemark><Placemark><name>Contrà S.Domenico</name><description>Zona 3 - 40 posti</description><styleUrl>#zona3</styleUrl><LineString><tessellate>1</tessellate><coordinates>11.5556464,45.5507252,0 11.5549926,45.550758,0 11.5548365,45.550763,0 11.5546345,45.5507632,0 11.5545049,45.5507413,0 11.5541442,45.5506114,0 11.5535141,45.5503911,0 11.5527957,45.5501716,0 11.5525883,45.5501361,0</coordinates></LineString></Placemark><Placemark><name>Piazza Araceli</name><description>Zona 3 - 49 posti</description><styleUrl>#zona3</styleUrl><LineString><tessellate>1</tessellate><coordinates>11.549375,45.5526325,0 11.5493708,45.5526694,0</coordinates></LineString></Placemark><Placemark><name>Piazza Araceli</name><description>Zona 3 - 49 posti</description><styleUrl>#zona3</styleUrl><LineString><tessellate>1</tessellate><coordinates>11.5507596,45.5529679,0 11.5507111,45.5529583,0 11.5506314,45.5529512,0</coordinates></LineString></Placemark><Placemark><name>Piazza Araceli</name><description>Zona 3 - 49 posti</description><styleUrl>#zona3</styleUrl><LineString><tessellate>1</tessellate><coordinates>11.5506314,45.5529512,0 11.5504798,45.5529639,0 11.5503292,45.5529528,0 11.5501399,45.5529288,0 11.550049,45.5528936,0</coordinates></LineString></Placemark><Placemark><name>Piazza Araceli</name><description>Zona 3 - 49 posti</description><styleUrl>#zona3</styleUrl><LineString><tessellate>1</tessellate><coordinates>11.5493708,45.5526694,0 11.5493793,45.5527432,0 11.5493841,45.552876,0 11.5494243,45.5529916,0 11.5495207,45.5530689,0 11.5496391,45.5530971,0 11.5497562,45.5530995,0 11.5499704,45.5530783,0 11.5502064,45.5530163,0 11.5503292,45.5529528,0</coordinates></LineString></Placemark><Placemark><name>Piazza Araceli</name><description>Zona 3 - 49 posti</description><styleUrl>#zona3</styleUrl><LineString><tessellate>1</tessellate><coordinates>11.550049,45.5528936,0 11.5494032,45.5526434,0</coordinates></LineString></Placemark><Placemark><name>Piazza Araceli</name><description>Zona 3 - 49 posti</description><styleUrl>#zona3</styleUrl><LineString><tessellate>1</tessellate><coordinates>11.5494032,45.5526434,0 11.549375,45.5526325,0 11.5492614,45.5525904,0</coordinates></LineString></Placemark><Placemark><name>Via Legione Gallieno</name><description>Zona 3 - 4 posti</description><styleUrl>#zona3</styleUrl><LineString><tessellate>1</tessellate><coordinates>11.5539798,45.5525348,0 11.5541974,45.552495,0</coordinates></LineString></Placemark><Placemark><name>Via Legione Gallieno</name><description>Zona 3 - 4 posti</description><styleUrl>#zona3</styleUrl><LineString><tessellate>1</tessellate><coordinates>11.5562314,45.5507404,0 11.5562726,45.5506323,0 11.5563106,45.5504127,0 11.55628,45.5502237,0 11.5561993,45.5499463,0 11.5561798,45.5498786,0 11.5560766,45.5495326,0 11.5560819,45.5494557,0 11.55605,45.5493181,0 11.5559173,45.5490532,0 11.5558087,45.5488654,0 11.5557515,45.5488096,0</coordinates></LineString></Placemark><Placemark><name>Via Legione Gallieno</name><description>Zona 3 - 4 posti</description><styleUrl>#zona3</styleUrl><LineString><tessellate>1</tessellate><coordinates>11.5541974,45.552495,0 11.5540083,45.5525747,0</coordinates></LineString></Placemark><Placemark><name>Via Legione Gallieno</name><description>Zona 3 - 4 posti</description><styleUrl>#zona3</styleUrl><LineString><tessellate>1</tessellate><coordinates>11.5541974,45.552495,0 11.5542394,45.5524754,0 11.5542849,45.5524498,0 11.5543231,45.5524244,0 11.554354,45.5524039,0 11.554921,45.5519968,0 11.5556172,45.5514937,0 11.5557759,45.5513761,0 11.5559907,45.551143,0 11.5562314,45.5507404,0</coordinates></LineString></Placemark><Placemark><name>Via Legione Gallieno</name><description>Zona 3 - 4 posti</description><styleUrl>#zona3</styleUrl><LineString><tessellate>1</tessellate><coordinates>11.5540083,45.5525747,0 11.5539208,45.5526175,0 11.5539111,45.552624,0 11.5538705,45.5526513,0 11.5538375,45.5526922,0</coordinates></LineString></Placemark><Placemark><name>Via Legione Gallieno</name><description>Zona 3 - 4 posti</description><styleUrl>#zona3</styleUrl><LineString><tessellate>1</tessellate><coordinates>11.5537664,45.5525841,0 11.5539798,45.5525348,0</coordinates></LineString></Placemark><Placemark><name>Viale Margherita</name><description>Zona 3 - 16 posti</description><styleUrl>#zona3</styleUrl><LineString><tessellate>1</tessellate><coordinates>11.5557515,45.5488096,0 11.5556976,45.54877,0 11.5554916,45.5486189,0 11.5550043,45.5482833,0 11.554373,45.5479076,0 11.5542014,45.5477891,0 11.5540448,45.5476613,0 11.5539399,45.5475721,0 11.5538396,45.5474807,0</coordinates></LineString></Placemark><Placemark><name>Viale Margherita</name><description>Zona 3 - 16 posti</description><styleUrl>#zona3</styleUrl><LineString><tessellate>1</tessellate><coordinates>11.5531874,45.5441156,0 11.5531421,45.5439698,0 11.5531017,45.5438547,0 11.5530459,45.5437809,0</coordinates></LineString></Placemark><Placemark><name>Viale Margherita</name><description>Zona 3 - 16 posti</description><styleUrl>#zona3</styleUrl><LineString><tessellate>1</tessellate><coordinates>11.5529686,45.5414617,0 11.5529366,45.541414,0 11.552913,45.5413711,0 11.5528844,45.5413237,0 11.5528372,45.541288,0 11.5527637,45.5412543,0 11.5526802,45.5412373,0 11.5523187,45.5412004,0</coordinates></LineString></Placemark><Placemark><name>Viale Margherita</name><description>Zona 3 - 16 posti</description><styleUrl>#zona3</styleUrl><LineString><tessellate>1</tessellate><coordinates>11.5530314,45.5422149,0 11.5530419,45.5423008,0 11.553058,45.5424834,0 11.5530733,45.5426972,0</coordinates></LineString></Placemark><Placemark><name>Viale Margherita</name><description>Zona 3 - 16 posti</description><styleUrl>#zona3</styleUrl><LineString><tessellate>1</tessellate><coordinates>11.5530314,45.5422149,0 11.5530283,45.542186,0</coordinates></LineString></Placemark><Placemark><name>Viale Margherita</name><description>Zona 3 - 16 posti</description><styleUrl>#zona3</styleUrl><LineString><tessellate>1</tessellate><coordinates>11.5530029,45.5418866,0 11.5529867,45.5417326,0 11.5529766,45.5416377,0 11.5529686,45.5414721,0</coordinates></LineString></Placemark><Placemark><name>Viale Margherita</name><description>Zona 3 - 16 posti</description><styleUrl>#zona3</styleUrl><LineString><tessellate>1</tessellate><coordinates>11.5538396,45.5474807,0 11.5538083,45.5474551,0</coordinates></LineString></Placemark><Placemark><name>Viale Margherita</name><description>Zona 3 - 16 posti</description><styleUrl>#zona3</styleUrl><LineString><tessellate>1</tessellate><coordinates>11.5532906,45.5457694,0 11.5532885,45.545734,0 11.5532834,45.5456834,0 11.5532838,45.5455165,0</coordinates></LineString></Placemark><Placemark><name>Viale Margherita</name><description>Zona 3 - 16 posti</description><styleUrl>#zona3</styleUrl><LineString><tessellate>1</tessellate><coordinates>11.5526977,45.5426314,0 11.5527516,45.5425641,0 11.5528815,45.5424485,0 11.5529301,45.5423947,0 11.5529642,45.5423584,0 11.5529984,45.5423109,0 11.5530149,45.5422723,0 11.5530314,45.5422149,0</coordinates></LineString></Placemark><Placemark><name>Viale Margherita</name><description>Zona 3 - 16 posti</description><styleUrl>#zona3</styleUrl><LineString><tessellate>1</tessellate><coordinates>11.5530733,45.5426972,0 11.5531049,45.5430862,0 11.5531234,45.5433189,0 11.5531252,45.5433437,0</coordinates></LineString></Placemark><Placemark><name>Viale Margherita</name><description>Zona 3 - 16 posti</description><styleUrl>#zona3</styleUrl><LineString><tessellate>1</tessellate><coordinates>11.5531252,45.5433437,0 11.5530903,45.5434368,0 11.55306,45.5434762,0 11.5530142,45.5434997,0 11.5529621,45.5435145,0 11.5529196,45.5435175,0 11.5528585,45.5435095,0 11.5527914,45.543501,0</coordinates></LineString></Placemark><Placemark><name>Viale Margherita</name><description>Zona 3 - 16 posti</description><styleUrl>#zona3</styleUrl><LineString><tessellate>1</tessellate><coordinates>11.5527914,45.543501,0 11.5526672,45.5433813,0 11.5525693,45.5432939,0 11.5525082,45.543238,0 11.5524741,45.5432052,0 11.5524372,45.5431587,0 11.5524177,45.5431169,0 11.5524097,45.5430882,0 11.5524043,45.5430582,0 11.552407,45.5430145,0 11.5524358,45.5429497,0 11.5526977,45.5426314,0</coordinates></LineString></Placemark><Placemark><name>Viale Margherita</name><description>Zona 3 - 16 posti</description><styleUrl>#zona3</styleUrl><LineString><tessellate>1</tessellate><coordinates>11.5531252,45.5433437,0 11.5531526,45.5434273,0 11.5531737,45.5436303,0 11.5531764,45.5436867,0 11.5531895,45.5439636,0 11.5531874,45.5441156,0</coordinates></LineString></Placemark><Placemark><name>Viale Margherita</name><description>Zona 3 - 16 posti</description><styleUrl>#zona3</styleUrl><LineString><tessellate>1</tessellate><coordinates>11.5526977,45.5426314,0 11.5527303,45.5426151,0 11.5528105,45.5425833,0 11.5528875,45.5425826,0 11.5529595,45.5425988,0 11.5530373,45.5426523,0 11.5530733,45.5426972,0</coordinates></LineString></Placemark><Placemark><name>Viale Margherita</name><description>Zona 3 - 16 posti</description><styleUrl>#zona3</styleUrl><LineString><tessellate>1</tessellate><coordinates>11.5532345,45.5449086,0 11.5532086,45.5445199,0 11.5531874,45.5441156,0</coordinates></LineString></Placemark><Placemark><name>Viale Margherita</name><description>Zona 3 - 16 posti</description><styleUrl>#zona3</styleUrl><LineString><tessellate>1</tessellate><coordinates>11.5530508,45.5413174,0 11.5530068,45.5414103,0 11.5529686,45.5414617,0</coordinates></LineString></Placemark><Placemark><name>Viale Margherita</name><description>Zona 3 - 16 posti</description><styleUrl>#zona3</styleUrl><LineString><tessellate>1</tessellate><coordinates>11.5530196,45.5449791,0 11.5530522,45.5449626,0 11.553087,45.544933,0 11.5531107,45.5449037,0 11.5531165,45.5448551,0 11.553127,45.5445215,0</coordinates></LineString></Placemark><Placemark><name>Viale Margherita</name><description>Zona 3 - 16 posti</description><styleUrl>#zona3</styleUrl><LineString><tessellate>1</tessellate><coordinates>11.5532807,45.5454359,0 11.5532628,45.5452298,0 11.5532542,45.545164,0</coordinates></LineString></Placemark><Placemark><name>Viale Margherita</name><description>Zona 3 - 16 posti</description><styleUrl>#zona3</styleUrl><LineString><tessellate>1</tessellate><coordinates>11.5532542,45.545164,0 11.5532525,45.5451457,0</coordinates></LineString></Placemark><Placemark><name>Viale Margherita</name><description>Zona 3 - 16 posti</description><styleUrl>#zona3</styleUrl><LineString><tessellate>1</tessellate><coordinates>11.5530283,45.542186,0 11.5530051,45.5419252,0 11.5530029,45.5418866,0</coordinates></LineString></Placemark><Placemark><name>Viale Margherita</name><description>Zona 3 - 16 posti</description><styleUrl>#zona3</styleUrl><LineString><tessellate>1</tessellate><coordinates>11.5534513,45.5469389,0 11.5534075,45.5467846,0 11.5533776,45.5466244,0 11.5533625,45.5464726,0 11.5533485,45.5463317,0 11.5533331,45.5460929,0 11.5533245,45.5460051,0 11.5532968,45.5458726,0 11.5532906,45.5457694,0</coordinates></LineString></Placemark><Placemark><name>Viale Margherita</name><description>Zona 3 - 16 posti</description><styleUrl>#zona3</styleUrl><LineString><tessellate>1</tessellate><coordinates>11.5530459,45.5437809,0 11.553033,45.5437623,0 11.553002,45.5437199,0 11.5529643,45.5436682,0 11.5527914,45.543501,0</coordinates></LineString></Placemark><Placemark><name>Viale Margherita</name><description>Zona 3 - 16 posti</description><styleUrl>#zona3</styleUrl><LineString><tessellate>1</tessellate><coordinates>11.5536317,45.5472973,0 11.5535944,45.5472479,0 11.5535516,45.5471657,0 11.553496,45.5470518,0 11.5534513,45.5469389,0</coordinates></LineString></Placemark><Placemark><name>Viale Margherita</name><description>Zona 3 - 16 posti</description><styleUrl>#zona3</styleUrl><LineString><tessellate>1</tessellate><coordinates>11.5532838,45.5455165,0 11.5532835,45.5455048,0 11.5532807,45.5454359,0</coordinates></LineString></Placemark><Placemark><name>Viale Margherita</name><description>Zona 3 - 16 posti</description><styleUrl>#zona3</styleUrl><LineString><tessellate>1</tessellate><coordinates>11.5532525,45.5451457,0 11.5532345,45.5449086,0</coordinates></LineString></Placemark><Placemark><name>Viale Margherita</name><description>Zona 3 - 16 posti</description><styleUrl>#zona3</styleUrl><LineString><tessellate>1</tessellate><coordinates>11.5529635,45.5450003,0 11.5530196,45.5449791,0</coordinates></LineString></Placemark><Placemark><name>Viale Margherita</name><description>Zona 3 - 16 posti</description><styleUrl>#zona3</styleUrl><LineString><tessellate>1</tessellate><coordinates>11.553127,45.5445215,0 11.5530958,45.5441428,0 11.5530715,45.543912,0 11.5530661,45.5438584,0 11.5530459,45.5437809,0</coordinates></LineString></Placemark><Placemark><name>Viale Margherita</name><description>Zona 3 - 16 posti</description><styleUrl>#zona3</styleUrl><LineString><tessellate>1</tessellate><coordinates>11.5529686,45.5414721,0 11.5529686,45.5414617,0</coordinates></LineString></Placemark><Placemark><name>Viale Margherita</name><description>Zona 3 - 16 posti</description><styleUrl>#zona3</styleUrl><LineString><tessellate>1</tessellate><coordinates>11.5538083,45.5474551,0 11.5537595,45.5474266,0 11.5537025,45.5473899,0 11.5536317,45.5472973,0</coordinates></LineString></Placemark><Placemark><name>Contrà Porta Padova</name><description>Zona 3 - 35 posti</description><styleUrl>#zona3</styleUrl><LineString><tessellate>1</tessellate><coordinates>11.5527086,45.5500859,0 11.5533412,45.5497992,0 11.5539088,45.5495393,0 11.5542617,45.5494172,0 11.5546439,45.5492856,0 11.554927,45.5491703,0 11.5550355,45.5491251,0 11.5554,45.5489626,0 11.5556827,45.5488395,0 11.5557515,45.5488096,0</coordinates></LineString></Placemark><Placemark><name>Contrà Porta Padova</name><description>Zona 3 - 35 posti</description><styleUrl>#zona3</styleUrl><LineString><tessellate>1</tessellate><coordinates>11.5556871,45.5490932,0 11.5555297,45.5491447,0 11.5554,45.5489626,0</coordinates></LineString></Placemark><Placemark><name>Contrà Porta Padova</name><description>Zona 3 - 35 posti</description><styleUrl>#zona3</styleUrl><LineString><tessellate>1</tessellate><coordinates>11.5553504,45.5495625,0 11.5550355,45.5491251,0</coordinates></LineString></Placemark><Placemark><name>Contrà Porta S.Lucia</name><description>Zona 3 - 34 posti</description><styleUrl>#zona3</styleUrl><LineString><tessellate>1</tessellate><coordinates>11.5509416,45.5503874,0 11.5509077,45.550406,0 11.5508898,45.5504264,0 11.5508756,45.5504549,0 11.5508699,45.5504815,0 11.5508735,45.5505363,0 11.5509702,45.5507102,0 11.551149,45.551079,0 11.5512862,45.551471,0 11.5513647,45.5518723,0 11.5514246,45.5520938,0 11.5515418,45.5523686,0 11.5516929,45.552762,0 11.5517755,45.5529052,0</coordinates></LineString></Placemark><Placemark><name>Contrà Porta S.Lucia</name><description>Zona 3 - 34 posti</description><styleUrl>#zona3</styleUrl><LineString><tessellate>1</tessellate><coordinates>11.5519105,45.5523596,0 11.5518954,45.5523263,0 11.5516793,45.5523486,0</coordinates></LineString></Placemark><Placemark><name>Contrà Porta S.Lucia</name><description>Zona 3 - 34 posti</description><styleUrl>#zona3</styleUrl><LineString><tessellate>1</tessellate><coordinates>11.5518185,45.5520494,0 11.551798,45.5520452,0 11.5515125,45.5520813,0 11.5514246,45.5520938,0</coordinates></LineString></Placemark><Placemark><name>Contrà Porta S.Lucia</name><description>Zona 3 - 34 posti</description><styleUrl>#zona3</styleUrl><LineString><tessellate>1</tessellate><coordinates>11.5518569,45.5530767,0 11.5518357,45.5530394,0 11.5518292,45.5530266,0 11.5518145,45.5529964,0 11.5517755,45.5529052,0</coordinates></LineString></Placemark><Placemark><name>Contrà Porta S.Lucia</name><description>Zona 3 - 34 posti</description><styleUrl>#zona3</styleUrl><LineString><tessellate>1</tessellate><coordinates>11.5515932,45.5523618,0 11.5515418,45.5523686,0</coordinates></LineString></Placemark><Placemark><name>Contrà Porta S.Lucia</name><description>Zona 3 - 34 posti</description><styleUrl>#zona3</styleUrl><LineString><tessellate>1</tessellate><coordinates>11.5516793,45.5523486,0 11.5515932,45.5523618,0</coordinates></LineString></Placemark><Placemark><name>Contrà S. Pietro</name><description>Zona 3 - 30 posti</description><styleUrl>#zona3</styleUrl><LineString><tessellate>1</tessellate><coordinates>11.5508965,45.5501804,0 11.5510426,45.5500188,0 11.5511697,45.5498924,0 11.5515224,45.5495428,0 11.5517866,45.5492807,0 11.5520677,45.5488973,0</coordinates></LineString></Placemark><Placemark><name>Contrà S. Pietro</name><description>Zona 3 - 30 posti</description><styleUrl>#zona3</styleUrl><LineString><tessellate>1</tessellate><coordinates>11.5520677,45.5488973,0 11.5521809,45.5487507,0 11.5522675,45.5486414,0 11.5523669,45.5485473,0 11.5525465,45.5483634,0 11.552662,45.5482464,0 11.5530429,45.5478756,0 11.5531663,45.5477476,0</coordinates></LineString></Placemark><Placemark><name>Contrà S. Pietro</name><description>Zona 3 - 30 posti</description><styleUrl>#zona3</styleUrl><LineString><tessellate>1</tessellate><coordinates>11.5531663,45.5477476,0 11.5532422,45.5476722,0 11.5535946,45.5473222,0 11.5536317,45.5472973,0</coordinates></LineString></Placemark><Placemark><name>Piazza S. Pietro</name><description>Zona 3 - 19 posti</description><styleUrl>#zona3</styleUrl><LineString><tessellate>1</tessellate><coordinates>11.5532169,45.5492853,0 11.5529537,45.5494043,0 11.5527075,45.5491668,0 11.5520677,45.5488973,0</coordinates></LineString></Placemark><Placemark><name>Via IV Novembre</name><description>Zona 3 - 30 posti</description><styleUrl>#zona3</styleUrl><LineString><tessellate>1</tessellate><coordinates>11.5536,45.5525997,0 11.5535951,45.5525585,0 11.5535805,45.552521,0 11.5535487,45.5524691,0</coordinates></LineString></Placemark><Placemark><name>Via IV Novembre</name><description>Zona 3 - 30 posti</description><styleUrl>#zona3</styleUrl><LineString><tessellate>1</tessellate><coordinates>11.5533411,45.5517025,0 11.552969,45.5515924,0 11.5527311,45.5515197,0 11.5526545,45.5515462,0</coordinates></LineString></Placemark><Placemark><name>Via IV Novembre</name><description>Zona 3 - 30 posti</description><styleUrl>#zona3</styleUrl><LineString><tessellate>1</tessellate><coordinates>11.5513474,45.5503891,0 11.551225,45.5503788,0 11.5511377,45.5503714,0 11.5510593,45.5503683,0 11.5509885,45.5503742,0</coordinates></LineString></Placemark><Placemark><name>Via IV Novembre</name><description>Zona 3 - 30 posti</description><styleUrl>#zona3</styleUrl><LineString><tessellate>1</tessellate><coordinates>11.5510595,45.550285,0 11.5511149,45.5502984,0 11.5512097,45.5503386,0 11.5512885,45.5503676,0 11.5513017,45.5503724,0 11.5513474,45.5503891,0</coordinates></LineString></Placemark><Placemark><name>Via IV Novembre</name><description>Zona 3 - 30 posti</description><styleUrl>#zona3</styleUrl><LineString><tessellate>1</tessellate><coordinates>11.5535487,45.5524691,0 11.5536601,45.5525428,0 11.5537097,45.5525723,0</coordinates></LineString></Placemark><Placemark><name>Via IV Novembre</name><description>Zona 3 - 30 posti</description><styleUrl>#zona3</styleUrl><LineString><tessellate>1</tessellate><coordinates>11.5535487,45.5524691,0 11.5534848,45.5523946,0 11.5527871,45.5516517,0 11.5527531,45.5516084,0 11.5526545,45.5515462,0 11.5526075,45.5514917,0 11.5522675,45.5511187,0 11.5520384,45.5508675,0 11.5518691,45.5506856,0 11.5516758,45.550529,0 11.5515625,45.5504671,0 11.5514343,45.550419,0 11.5513474,45.5503891,0</coordinates></LineString></Placemark><Placemark><name>Contrà dei Torretti</name><description>Zona 3 - 2 posti</description><styleUrl>#zona3</styleUrl><LineString><tessellate>1</tessellate><coordinates>11.5506314,45.5529512,0 11.5506086,45.5529076,0 11.5504768,45.5525175,0 11.5504256,45.5523721,0 11.5504097,45.5521694,0 11.5503461,45.5517243,0 11.5500574,45.5508536,0 11.5500595,45.5507326,0 11.5500988,45.5506575,0 11.5505887,45.5504446,0 11.5506719,45.5504071,0 11.5507188,45.5503763,0 11.5507842,45.5503418,0</coordinates></LineString></Placemark><Placemark><name>Contrà Burci</name><description>Zona 4 - 17 posti</description><styleUrl>#zona4</styleUrl><LineString><tessellate>1</tessellate><coordinates>11.5509513,45.5453156,0 11.5509441,45.5453008,0 11.5509311,45.5452739,0 11.5509237,45.5452497,0 11.5511343,45.5440605,0 11.5510752,45.5440103,0 11.5498079,45.5438778,0 11.5494649,45.5441108,0 11.5493907,45.5441244,0 11.5491285,45.5440601,0</coordinates></LineString></Placemark><Placemark><name>Contrà Chinotto</name><description>Zona 4 - 15 posti</description><styleUrl>#zona4</styleUrl><LineString><tessellate>1</tessellate><coordinates>11.5500346,45.5424512,0 11.5499625,45.5424581,0 11.5493466,45.5425172,0 11.5491294,45.5425259,0 11.5490221,45.5425207,0 11.5488289,45.5425062,0 11.5486772,45.5424992,0 11.5485935,45.5425071,0 11.5485071,45.5425189,0</coordinates></LineString></Placemark><Placemark><name>Contrà S. Caterina</name><description>Zona 4 - 35 posti</description><styleUrl>#zona4</styleUrl><LineString><tessellate>1</tessellate><coordinates>11.5529366,45.541414,0 11.5528728,45.5413927,0 11.5528323,45.5413903,0 11.5527415,45.5413935,0 11.5526607,45.5413987,0 11.5526104,45.5414063,0 11.5525228,45.5414306,0 11.5524821,45.5414445,0 11.5524441,45.5414628,0 11.5523785,45.5414982,0 11.5522993,45.5415233,0</coordinates></LineString></Placemark><Placemark><name>Contrà S. Caterina</name><description>Zona 4 - 35 posti</description><styleUrl>#zona4</styleUrl><LineString><tessellate>1</tessellate><coordinates>11.5522883,45.5415297,0 11.5521249,45.5416239,0 11.5520159,45.5416785,0 11.5518656,45.5417432,0 11.5516131,45.5418229,0 11.5513728,45.5419144,0 11.5512766,45.54195,0 11.5512129,45.5419771,0 11.5509411,45.5421021,0 11.5502846,45.5423694,0 11.5501965,45.5423987,0 11.5501031,45.5424328,0 11.5500346,45.5424512,0</coordinates></LineString></Placemark><Placemark><name>Contrà S. Caterina</name><description>Zona 4 - 35 posti</description><styleUrl>#zona4</styleUrl><LineString><tessellate>1</tessellate><coordinates>11.5522993,45.5415233,0 11.5523346,45.5414674,0 11.5523959,45.5414247,0 11.5524781,45.541388,0 11.5525487,45.5413648,0 11.5526217,45.5413446,0 11.5526637,45.541331,0 11.5526813,45.5413179,0 11.552688,45.5413019,0 11.5526882,45.5412802,0 11.5526699,45.5412698,0 11.552447,45.5412469,0 11.5523187,45.5412004,0</coordinates></LineString></Placemark><Placemark><name>Contrà S. Caterina</name><description>Zona 4 - 35 posti</description><styleUrl>#zona4</styleUrl><LineString><tessellate>1</tessellate><coordinates>11.5522993,45.5415233,0 11.5522883,45.5415297,0</coordinates></LineString></Placemark><Placemark><name>Contrà S. Chiara</name><description>Zona 4 - 3 posti</description><styleUrl>#zona4</styleUrl><LineString><tessellate>1</tessellate><coordinates>11.549094,45.5436318,0 11.54914,45.5437391,0 11.5491508,45.5438498,0 11.5491285,45.5440601,0</coordinates></LineString></Placemark><Placemark><name>Contrà S. Silvestro</name><description>Zona 4 - 16 posti</description><styleUrl>#zona4</styleUrl><LineString><tessellate>1</tessellate><coordinates>11.5481175,45.5435443,0 11.5481713,45.5434266,0 11.5481922,45.5433334,0 11.5482066,45.5432552,0 11.5483147,45.5429809,0 11.5484705,45.5426068,0 11.5485071,45.5425189,0</coordinates></LineString></Placemark><Placemark><name>Contrà S. Silvestro</name><description>Zona 4 - 16 posti</description><styleUrl>#zona4</styleUrl><LineString><tessellate>1</tessellate><coordinates>11.5477434,45.541186,0 11.5477393,45.5412224,0 11.5477352,45.5412712,0 11.5477353,45.5413284,0 11.5477381,45.541354,0 11.5477528,45.5414059,0 11.5477744,45.5414385,0 11.5478035,45.541462,0 11.5479221,45.5415177,0 11.5481965,45.5415884,0 11.5484319,45.541648,0 11.5484873,45.5416738,0 11.548536,45.5417934,0 11.5485507,45.5418927,0 11.5485952,45.5422797,0 11.5485453,45.5424317,0 11.5485071,45.5425189,0</coordinates></LineString></Placemark><Placemark><name>Contrà S. Silvestro</name><description>Zona 4 - 16 posti</description><styleUrl>#zona4</styleUrl><LineString><tessellate>1</tessellate><coordinates>11.5480926,45.5435998,0 11.5481175,45.5435443,0</coordinates></LineString></Placemark><Placemark><name>Contrà S. Silvestro</name><description>Zona 4 - 16 posti</description><styleUrl>#zona4</styleUrl><LineString><tessellate>1</tessellate><coordinates>11.5480643,45.5436629,0 11.5480926,45.5435998,0</coordinates></LineString></Placemark><Placemark><name>Contrà S. Tomaso</name><description>Zona 4 - 0 posti</description><styleUrl>#zona4</styleUrl><LineString><tessellate>1</tessellate><coordinates>11.5495212,45.5429903,0 11.5494483,45.5430495,0 11.5493441,45.5431341,0 11.5492705,45.5432489,0 11.5492111,45.5433682,0 11.5491334,45.5435121,0 11.549094,45.5436318,0</coordinates></LineString></Placemark><Placemark><name>Contrà S. Tomaso</name><description>Zona 4 - 0 posti</description><styleUrl>#zona4</styleUrl><LineString><tessellate>1</tessellate><coordinates>11.5500346,45.5424512,0 11.5499836,45.5425524,0 11.5499452,45.5426103,0</coordinates></LineString></Placemark><Placemark><name>Contrà S. Tomaso</name><description>Zona 4 - 0 posti</description><styleUrl>#zona4</styleUrl><LineString><tessellate>1</tessellate><coordinates>11.5499452,45.5426103,0 11.5499226,45.5426443,0 11.5497264,45.5428236,0 11.5495212,45.5429903,0</coordinates></LineString></Placemark><Placemark><name>Contrà Valmerlara</name><description>Zona 4 - 12 posti</description><styleUrl>#zona4</styleUrl><LineString><tessellate>1</tessellate><coordinates>11.5485071,45.5425189,0 11.5483262,45.5425379,0 11.5480819,45.5425558,0 11.5478536,45.5425812,0 11.5473527,45.542659,0 11.5472738,45.542666,0 11.5472386,45.542655,0 11.5472245,45.5426391,0</coordinates></LineString></Placemark><Placemark><name>Stradella Fossetta</name><description>Zona 4 - 8 posti</description><styleUrl>#zona4</styleUrl><LineString><tessellate>1</tessellate><coordinates>11.5470467,45.5431039,0 11.5476209,45.5432091,0 11.5481922,45.5433334,0</coordinates></LineString></Placemark><Placemark><name>Viale X Giugno</name><description>Zona 4 - 12 posti</description><styleUrl>#zona4</styleUrl><LineString><tessellate>1</tessellate><coordinates>11.5489177,45.5375852,0 11.5488179,45.5375044,0</coordinates></LineString></Placemark><Placemark><name>Viale X Giugno</name><description>Zona 4 - 12 posti</description><styleUrl>#zona4</styleUrl><LineString><tessellate>1</tessellate><coordinates>11.544291,45.5346526,0 11.5441347,45.5345175,0 11.5438846,45.5342339,0 11.5436439,45.5338579,0 11.5435535,45.5335922,0 11.5434775,45.5333315,0 11.5434319,45.5330335,0 11.543439,45.5328341,0 11.5435016,45.5325735,0 11.5435644,45.5324226,0 11.5436611,45.5322892,0 11.5440377,45.5319842,0 11.5443736,45.5316977,0 11.5445923,45.5314862,0 11.5446992,45.5314022,0 11.5448345,45.5313279,0 11.5451508,45.531184,0 11.5455343,45.5309771,0 11.5457189,45.5308248,0 11.5458639,45.5306837,0 11.5459504,45.530576,0</coordinates></LineString></Placemark><Placemark><name>Viale X Giugno</name><description>Zona 4 - 12 posti</description><styleUrl>#zona4</styleUrl><LineString><tessellate>1</tessellate><coordinates>11.5464019,45.5198129,0 11.546506,45.51996,0 11.546668,45.520234,0 11.546801,45.520395,0 11.5468563,45.5204931,0 11.546894,45.52056,0 11.546908,45.520632,0 11.546917,45.520757,0 11.546904,45.520915,0 11.546898,45.52109,0 11.546933,45.521155,0 11.547037,45.521255,0</coordinates></LineString></Placemark><Placemark><name>Viale X Giugno</name><description>Zona 4 - 12 posti</description><styleUrl>#zona4</styleUrl><LineString><tessellate>1</tessellate><coordinates>11.547074,45.52455,0 11.546946,45.52467,0 11.546794,45.524731,0 11.546724,45.524812,0 11.546605,45.524932,0 11.546362,45.5252,0 11.5460783,45.5253935,0</coordinates></LineString></Placemark><Placemark><name>Viale X Giugno</name><description>Zona 4 - 12 posti</description><styleUrl>#zona4</styleUrl><LineString><tessellate>1</tessellate><coordinates>11.5450165,45.5235647,0 11.5449561,45.5234509,0 11.5448928,45.5232857,0 11.544888,45.5230914,0 11.5449426,45.5229797,0 11.5450373,45.5228943,0 11.5451904,45.5227878,0 11.5453108,45.5227126,0 11.5454271,45.5226847,0 11.5454802,45.5227,0 11.5455182,45.5227247,0 11.5455392,45.5227568,0 11.5455445,45.5227855,0 11.5454968,45.5228455,0 11.5453238,45.5229615,0 11.5452594,45.5230269,0 11.5452623,45.5230603,0 11.5452866,45.5230917,0 11.5453219,45.5231162,0 11.5453684,45.5231291,0 11.5454148,45.5231286,0 11.5454666,45.5231096,0</coordinates></LineString></Placemark><Placemark><name>Viale X Giugno</name><description>Zona 4 - 12 posti</description><styleUrl>#zona4</styleUrl><LineString><tessellate>1</tessellate><coordinates>11.5476896,45.5408641,0 11.5476563,45.5408207,0 11.5476104,45.540769,0</coordinates></LineString></Placemark><Placemark><name>Viale X Giugno</name><description>Zona 4 - 12 posti</description><styleUrl>#zona4</styleUrl><LineString><tessellate>1</tessellate><coordinates>11.5448725,45.5151375,0 11.5445714,45.5148761,0 11.5444196,45.5147462,0 11.5442168,45.5146351,0 11.5439481,45.5145267,0 11.5433944,45.5143498,0 11.5431929,45.5142772,0 11.5430824,45.5142272,0 11.5429708,45.5141506,0 11.5427372,45.5139623,0 11.5423361,45.5136429,0 11.5420754,45.5134823,0 11.5419227,45.5134047,0 11.5413789,45.5132119,0 11.5410041,45.5130815,0 11.5406882,45.5129742,0 11.5403787,45.5128816,0 11.5400619,45.5128231,0 11.5398772,45.5127958,0 11.5397028,45.5127473,0 11.5394952,45.5126561,0 11.5392268,45.5125378,0 11.5388614,45.5123865,0 11.5386242,45.512316,0 11.5380103,45.5122356,0 11.5369743,45.51198,0</coordinates></LineString></Placemark><Placemark><name>Viale X Giugno</name><description>Zona 4 - 12 posti</description><styleUrl>#zona4</styleUrl><LineString><tessellate>1</tessellate><coordinates>11.5477434,45.541186,0 11.5477265,45.541189,0 11.5477057,45.5411894,0 11.5473738,45.5411965,0 11.5472894,45.5412032,0 11.5472352,45.5412136,0 11.5470031,45.5412852,0</coordinates></LineString></Placemark><Placemark><name>Viale X Giugno</name><description>Zona 4 - 12 posti</description><styleUrl>#zona4</styleUrl><LineString><tessellate>1</tessellate><coordinates>11.5471711,45.5401899,0 11.5472448,45.5400654,0</coordinates></LineString></Placemark><Placemark><name>Viale X Giugno</name><description>Zona 4 - 12 posti</description><styleUrl>#zona4</styleUrl><LineString><tessellate>1</tessellate><coordinates>11.5462821,45.5415835,0 11.5461826,45.5416182,0</coordinates></LineString></Placemark><Placemark><name>Viale X Giugno</name><description>Zona 4 - 12 posti</description><styleUrl>#zona4</styleUrl><LineString><tessellate>1</tessellate><coordinates>11.5458724,45.5417355,0 11.5458109,45.5417504,0 11.5457289,45.5417531,0 11.5456651,45.5417458,0 11.5456384,45.5417406,0 11.5456138,45.5417322,0</coordinates></LineString></Placemark><Placemark><name>Viale X Giugno</name><description>Zona 4 - 12 posti</description><styleUrl>#zona4</styleUrl><LineString><tessellate>1</tessellate><coordinates>11.5463785,45.5413532,0 11.5464809,45.5413808,0 11.5465336,45.5413921,0 11.5465848,45.5413961,0 11.5466335,45.5413956,0 11.5466784,45.5413901,0 11.5468337,45.5413539,0</coordinates></LineString></Placemark><Placemark><name>Viale X Giugno</name><description>Zona 4 - 12 posti</description><styleUrl>#zona4</styleUrl><LineString><tessellate>1</tessellate><coordinates>11.5454666,45.5231096,0 11.5455817,45.5230412,0 11.5468325,45.522322,0 11.5470846,45.5221153,0 11.5471567,45.5219784,0 11.5472043,45.5218473,0 11.5471984,45.5216672,0 11.547127,45.521471,0 11.547037,45.521255,0 11.5470071,45.521086,0 11.5470307,45.5208842,0 11.547105,45.520608,0 11.5470858,45.5204517,0 11.5470683,45.5203508,0 11.5470381,45.5202597,0</coordinates></LineString></Placemark><Placemark><name>Viale X Giugno</name><description>Zona 4 - 12 posti</description><styleUrl>#zona4</styleUrl><LineString><tessellate>1</tessellate><coordinates>11.545936,45.5417128,0 11.5458724,45.5417355,0</coordinates></LineString></Placemark><Placemark><name>Viale X Giugno</name><description>Zona 4 - 12 posti</description><styleUrl>#zona4</styleUrl><LineString><tessellate>1</tessellate><coordinates>11.5461826,45.5416182,0 11.5460329,45.5416756,0 11.545936,45.5417128,0</coordinates></LineString></Placemark><Placemark><name>Viale X Giugno</name><description>Zona 4 - 12 posti</description><styleUrl>#zona4</styleUrl><LineString><tessellate>1</tessellate><coordinates>11.5476104,45.540769,0 11.5471711,45.5401899,0</coordinates></LineString></Placemark><Placemark><name>Viale X Giugno</name><description>Zona 4 - 12 posti</description><styleUrl>#zona4</styleUrl><LineString><tessellate>1</tessellate><coordinates>11.5454148,45.5231286,0 11.5454849,45.5231691,0 11.5455709,45.5231717,0 11.5456419,45.5231318,0 11.5457276,45.523093,0 11.5458036,45.523061,0 11.5458926,45.523082,0 11.5459256,45.523125,0 11.5459276,45.52317,0 11.5458356,45.523308,0 11.5458176,45.523349,0 11.5458406,45.523389,0 11.5458756,45.523416,0 11.5459636,45.523411,0 11.5460636,45.52336,0 11.5462546,45.523242,0 11.5464166,45.523149,0 11.5464912,45.5231278,0 11.5465251,45.5231498,0 11.5465555,45.5231696,0</coordinates></LineString></Placemark><Placemark><name>Viale X Giugno</name><description>Zona 4 - 12 posti</description><styleUrl>#zona4</styleUrl><LineString><tessellate>1</tessellate><coordinates>11.5472448,45.5400654,0 11.5480499,45.5387778,0 11.5484205,45.5381812,0 11.5488028,45.5376096,0</coordinates></LineString></Placemark><Placemark><name>Viale X Giugno</name><description>Zona 4 - 12 posti</description><styleUrl>#zona4</styleUrl><LineString><tessellate>1</tessellate><coordinates>11.5458834,45.5353137,0 11.5458426,45.5352969,0 11.5458018,45.5352883,0 11.5457124,45.5352891,0 11.5454936,45.5353193,0 11.5453952,45.5353113,0 11.5453421,45.5353024,0 11.5452614,45.5352805,0</coordinates></LineString></Placemark><Placemark><name>Viale X Giugno</name><description>Zona 4 - 12 posti</description><styleUrl>#zona4</styleUrl><LineString><tessellate>1</tessellate><coordinates>11.5465555,45.5231696,0 11.5465461,45.5235881,0</coordinates></LineString></Placemark><Placemark><name>Viale X Giugno</name><description>Zona 4 - 12 posti</description><styleUrl>#zona4</styleUrl><LineString><tessellate>1</tessellate><coordinates>11.5450272,45.5235836,0 11.5450165,45.5235647,0</coordinates></LineString></Placemark><Placemark><name>Viale X Giugno</name><description>Zona 4 - 12 posti</description><styleUrl>#zona4</styleUrl><LineString><tessellate>1</tessellate><coordinates>11.5463129,45.5272226,0 11.5463291,45.5271861,0 11.5464449,45.5269249,0 11.5465428,45.5266892,0 11.5465852,45.52652,0 11.5465636,45.5262872,0 11.5464827,45.5261055,0 11.5463462,45.5258705,0 11.5460783,45.5253935,0 11.5457681,45.5248579,0 11.5453198,45.524103,0 11.5450272,45.5235836,0</coordinates></LineString></Placemark><Placemark><name>Viale X Giugno</name><description>Zona 4 - 12 posti</description><styleUrl>#zona4</styleUrl><LineString><tessellate>1</tessellate><coordinates>11.5470031,45.5412852,0 11.5472478,45.5411685,0</coordinates></LineString></Placemark><Placemark><name>Viale X Giugno</name><description>Zona 4 - 12 posti</description><styleUrl>#zona4</styleUrl><LineString><tessellate>1</tessellate><coordinates>11.5469417,45.5413089,0 11.5470031,45.5412852,0</coordinates></LineString></Placemark><Placemark><name>Viale X Giugno</name><description>Zona 4 - 12 posti</description><styleUrl>#zona4</styleUrl><LineString><tessellate>1</tessellate><coordinates>11.5468337,45.5413539,0 11.5469417,45.5413089,0</coordinates></LineString></Placemark><Placemark><name>Viale X Giugno</name><description>Zona 4 - 12 posti</description><styleUrl>#zona4</styleUrl><LineString><tessellate>1</tessellate><coordinates>11.5468337,45.5413539,0 11.5467643,45.5413994,0 11.5465851,45.5414755,0 11.5464672,45.5415299,0 11.5463814,45.5415638,0 11.5462821,45.5415835,0</coordinates></LineString></Placemark><Placemark><name>Viale X Giugno</name><description>Zona 4 - 12 posti</description><styleUrl>#zona4</styleUrl><LineString><tessellate>1</tessellate><coordinates>11.5472478,45.5411685,0 11.5473827,45.5411193,0 11.5475358,45.5410634,0</coordinates></LineString></Placemark><Placemark><name>Viale X Giugno</name><description>Zona 4 - 12 posti</description><styleUrl>#zona4</styleUrl><LineString><tessellate>1</tessellate><coordinates>11.5456714,45.5281761,0 11.5458916,45.5278473,0 11.5461119,45.5275126,0 11.5463129,45.5272226,0</coordinates></LineString></Placemark><Placemark><name>Viale X Giugno</name><description>Zona 4 - 12 posti</description><styleUrl>#zona4</styleUrl><LineString><tessellate>1</tessellate><coordinates>11.5488179,45.5375044,0 11.5487447,45.5374515,0 11.5468778,45.5360629,0 11.5467613,45.535975,0 11.5458834,45.5353137,0</coordinates></LineString></Placemark><Placemark><name>Viale X Giugno</name><description>Zona 4 - 12 posti</description><styleUrl>#zona4</styleUrl><LineString><tessellate>1</tessellate><coordinates>11.5470381,45.5202597,0 11.5468135,45.5197688,0 11.5463162,45.518747,0 11.5462672,45.518623,0 11.5461172,45.518248,0 11.5460672,45.518118,0 11.5458815,45.517655,0 11.5454344,45.5165405,0 11.5451445,45.5156622,0 11.5450598,45.5154221,0 11.5449679,45.5152658,0 11.5448725,45.5151375,0</coordinates></LineString></Placemark><Placemark><name>Viale X Giugno</name><description>Zona 4 - 12 posti</description><styleUrl>#zona4</styleUrl><LineString><tessellate>1</tessellate><coordinates>11.5478646,45.5411643,0 11.5477434,45.541186,0</coordinates></LineString></Placemark><Placemark><name>Viale X Giugno</name><description>Zona 4 - 12 posti</description><styleUrl>#zona4</styleUrl><LineString><tessellate>1</tessellate><coordinates>11.5488028,45.5376096,0 11.5488255,45.5375623,0 11.5488179,45.5375044,0</coordinates></LineString></Placemark><Placemark><name>Viale X Giugno</name><description>Zona 4 - 12 posti</description><styleUrl>#zona4</styleUrl><LineString><tessellate>1</tessellate><coordinates>11.5459504,45.530576,0 11.5459917,45.5305245,0 11.546111,45.5301871,0 11.546141,45.529729,0 11.546103,45.5295303,0 11.5460386,45.5293574,0 11.5458461,45.5291542,0 11.545626,45.5289938,0 11.545526,45.52881,0 11.545501,45.5285957,0 11.5455708,45.5283426,0 11.5456714,45.5281761,0</coordinates></LineString></Placemark><Placemark><name>Viale X Giugno</name><description>Zona 4 - 12 posti</description><styleUrl>#zona4</styleUrl><LineString><tessellate>1</tessellate><coordinates>11.5452614,45.5352805,0 11.5451906,45.5352371,0 11.5451721,45.5352165,0 11.5451179,45.5351602,0 11.5450819,45.5351069,0</coordinates></LineString></Placemark><Placemark><name>Viale X Giugno</name><description>Zona 4 - 12 posti</description><styleUrl>#zona4</styleUrl><LineString><tessellate>1</tessellate><coordinates>11.5450819,45.5351069,0 11.545039,45.5350434,0 11.5449525,45.534917,0 11.5447957,45.5348145,0 11.544291,45.5346526,0</coordinates></LineString></Placemark></Document></kml>
